H1 CPF 01  gfz 2022 04 10 00  6001 tandemx   
H2 1003001  6202 36605    2022 04 10 00 59 42 2022 04 15 00 00 42   120 1 1  0 0 0
H9
10 0 59681  29502.000000  0    3299085.235  -2929470.696  -5298244.644
10 0 59681  29622.000000  0    2614045.650  -2610604.071  -5821728.573
10 0 59681  29742.000000  0    1889742.497  -2234116.403  -6243499.129
10 0 59681  29862.000000  0    1139724.532  -1806002.982  -6556275.777
10 0 59681  29982.000000  0     377846.782  -1333376.126  -6754671.158
10 0 59681  30102.000000  0    -381982.017   -824346.605  -6835273.467
10 0 59681  30222.000000  0   -1126047.577   -287886.373  -6796697.896
10 0 59681  30342.000000  0   -1841071.717    266325.917  -6639607.738
10 0 59681  30462.000000  0   -2514443.777    828075.061  -6366703.414
10 0 59681  30582.000000  0   -3134437.938   1386792.397  -5982681.210
10 0 59681  30702.000000  0   -3690414.992   1931749.696  -5494161.926
10 0 59681  30822.000000  0   -4173007.138   2452261.650  -4909588.835
10 0 59681  30942.000000  0   -4574280.898   2937894.143  -4239092.640
10 0 59681  31062.000000  0   -4887873.782   3378672.871  -3494325.732
10 0 59681  31182.000000  0   -5109103.318   3765289.272  -2688269.138
10 0 59681  31302.000000  0   -5235044.993   4089299.379  -1835011.279
10 0 59681  31422.000000  0   -5264576.689   4343309.643   -949503.587
10 0 59681  31542.000000  0   -5198388.228   4521145.746    -47295.963
10 0 59681  31662.000000  0   -5038954.170   4617999.839    855742.388
10 0 59681  31782.000000  0   -4790469.619   4630550.386   1743711.434
10 0 59681  31902.000000  0   -4458750.571   4557051.777   2600969.744
10 0 59681  32022.000000  0   -4051101.260   4397392.446   3412418.392
10 0 59681  32142.000000  0   -3576152.777   4153119.432   4163773.432
10 0 59681  32262.000000  0   -3043677.856   3827428.903   4841821.261
10 0 59681  32382.000000  0   -2464385.832   3425123.436   5434652.820
10 0 59681  32502.000000  0   -1849702.327   2952536.980   5931871.203
10 0 59681  32622.000000  0   -1211539.439   2417429.875   6324769.779
10 0 59681  32742.000000  0    -562061.760   1828855.884   6606477.645
10 0 59681  32862.000000  0      86545.141   1197006.000   6772073.125
10 0 59681  32982.000000  0     722303.369    533029.954   6818665.059
10 0 59681  33102.000000  0    1333663.111   -151160.511   6745439.440
10 0 59681  33222.000000  0    1909711.422   -843104.519   6553673.471
10 0 59681  33342.000000  0    2440366.679  -1530018.626   6246714.938
10 0 59681  33462.000000  0    2916556.101  -2199032.270   5829928.389
10 0 59681  33582.000000  0    3330373.731  -2837429.989   5310606.660
10 0 59681  33702.000000  0    3675214.976  -3432894.957   4697849.146
10 0 59681  33822.000000  0    3945886.250  -3973750.223   4002407.823
10 0 59681  33942.000000  0    4138687.126  -4449192.586   3236501.935
10 0 59681  34062.000000  0    4251462.467  -4849513.933   2413604.394
10 0 59681  34182.000000  0    4283623.862  -5166304.547   1548202.615
10 0 59681  34302.000000  0    4236138.656  -5392632.858    655538.330
10 0 59681  34422.000000  0    4111486.458  -5523196.617   -248667.981
10 0 59681  34542.000000  0    3913586.095  -5554443.015  -1148501.409
10 0 59681  34662.000000  0    3647692.394  -5484654.075  -2028142.545
10 0 59681  34782.000000  0    3320266.310  -5313993.552  -2872152.837
10 0 59681  34902.000000  0    2938823.018  -5044516.394  -3665751.267
10 0 59681  35022.000000  0    2511760.284  -4680139.955  -4395075.483
10 0 59681  35142.000000  0    2048172.587  -4226578.860  -5047421.967
10 0 59681  35262.000000  0    1557657.041  -3691245.211  -5611460.927
10 0 59681  35382.000000  0    1050115.661  -3083118.855  -6077423.354
10 0 59681  35502.000000  0     535556.750  -2412590.969  -6437259.640
10 0 59681  35622.000000  0      23899.660  -1691282.578  -6684767.719
10 0 59681  35742.000000  0    -475212.440   -931841.934  -6815689.297
10 0 59681  35862.000000  0    -952589.011   -147724.750  -6827774.964
10 0 59681  35982.000000  0   -1399657.020    647039.246  -6720817.823
10 0 59681  36102.000000  0   -1808611.348   1438090.584  -6496656.262
10 0 59681  36222.000000  0   -2172547.713   2210992.974  -6159145.660
10 0 59681  36342.000000  0   -2485578.133   2951490.681  -5714100.400
10 0 59681  36462.000000  0   -2742926.745   3645768.828  -5169204.162
10 0 59681  36582.000000  0   -2941004.594   4280711.410  -4533889.352
10 0 59681  36702.000000  0   -3077461.987   4844152.957  -3819184.249
10 0 59681  36822.000000  0   -3151215.546   5325116.811  -3037529.567
10 0 59681  36942.000000  0   -3162450.120   5714035.556  -2202569.636
10 0 59681  37062.000000  0   -3112596.254   6002951.347  -1328918.337
10 0 59681  37182.000000  0   -3004280.420   6185687.576   -431901.712
10 0 59681  37302.000000  0   -2841251.410   6257986.471    472713.780
10 0 59681  37422.000000  0   -2628284.749   6217613.086   1369006.074
10 0 59681  37542.000000  0   -2371062.495   6064415.971   2241189.547
10 0 59681  37662.000000  0   -2076034.500   5800343.564   3073902.265
10 0 59681  37782.000000  0   -1750266.204   5429418.922   3852483.277
10 0 59681  37902.000000  0   -1401276.403   4957673.678   4563235.558
10 0 59681  38022.000000  0   -1036868.250   4393042.265   5193669.779
10 0 59681  38142.000000  0    -664956.855   3745219.210   5732722.838
10 0 59681  38262.000000  0    -293400.484   3025484.324   6170948.596
10 0 59681  38382.000000  0      70163.214   2246498.237   6500678.102
10 0 59681  38502.000000  0     418471.993   1422075.017   6716147.622
10 0 59681  38622.000000  0     744782.568    566933.603   6813593.987
10 0 59681  38742.000000  0    1042999.682   -303565.487   6791315.127
10 0 59681  38862.000000  0    1307789.071  -1173695.023   6649699.016
10 0 59681  38982.000000  0    1534672.853  -2027645.007   6391217.648
10 0 59681  39102.000000  0    1720105.625  -2849809.835   6020387.192
10 0 59681  39222.000000  0    1861530.164  -3625075.391   5543693.760
10 0 59681  39342.000000  0    1957411.507  -4339100.062   4969484.795
10 0 59681  39462.000000  0    2007249.484  -4978583.792   4307828.430
10 0 59681  39582.000000  0    2011570.394  -5531523.599   3570342.865
10 0 59681  39702.000000  0    1971895.578  -5987448.464   2769993.638
10 0 59681  39822.000000  0    1890687.266  -6337625.792   1920864.648
10 0 59681  39942.000000  0    1771275.569  -6575236.121   1037907.723
10 0 59681  40062.000000  0    1617766.145  -6695512.762    136674.105
10 0 59681  40182.000000  0    1434930.755  -6695842.297   -766966.997
10 0 59681  40302.000000  0    1228083.037  -6575820.840  -1657119.610
10 0 59681  40422.000000  0    1002942.857  -6337262.154  -2518149.050
10 0 59681  40542.000000  0     765494.230  -5984162.567  -3334962.466
10 0 59681  40662.000000  0     521841.772  -5522623.241  -4093276.494
10 0 59681  40782.000000  0     278066.191  -4960732.196  -4779866.794
10 0 59681  40902.000000  0      40083.610  -4308409.796  -5382793.815
10 0 59681  41022.000000  0    -186487.728  -3577222.746  -5891602.842
10 0 59681  41142.000000  0    -396450.767  -2780170.101  -6297495.113
10 0 59681  41262.000000  0    -585140.538  -1931446.951  -6593468.505
10 0 59681  41382.000000  0    -748520.989  -1046190.415  -6774426.881
10 0 59681  41502.000000  0    -883266.106   -140212.327  -6837259.108
10 0 59681  41622.000000  0    -986824.011    770278.447  -6780885.927
10 0 59681  41742.000000  0   -1057463.643   1668958.223  -6606275.818
10 0 59681  41862.000000  0   -1094303.246   2539673.564  -6316430.017
10 0 59681  41982.000000  0   -1097320.143   3366725.035  -5916337.876
10 0 59681  42102.000000  0   -1067342.125   4135147.788  -5412900.523
10 0 59681  42222.000000  0   -1006019.791   4830982.354  -4814822.936
10 0 59681  42342.000000  0    -915780.985   5441533.046  -4132475.084
10 0 59681  42462.000000  0    -799767.470   5955607.556  -3377721.557
10 0 59681  42582.000000  0    -661754.653   6363731.996  -2563722.885
10 0 59681  42702.000000  0    -506055.912   6658337.854  -1704711.042
10 0 59681  42822.000000  0    -337413.917   6833914.759   -815741.212
10 0 59681  42942.000000  0    -160880.653   6887124.962     87574.576
10 0 59681  43062.000000  0      18310.901   6816876.046    989347.692
10 0 59681  43182.000000  0     194879.570   6624348.584   1873701.697
10 0 59681  43302.000000  0     363629.230   6312975.868   2725061.558
10 0 59681  43422.000000  0     519579.483   5888378.585   3528434.946
10 0 59681  43542.000000  0     658091.301   5358257.868   4269681.582
10 0 59681  43662.000000  0     774984.694   4732249.373   4935769.077
10 0 59681  43782.000000  0     866642.792   4021732.449   5515003.377
10 0 59681  43902.000000  0     930103.751   3239614.830   5997228.618
10 0 59681  44022.000000  0     963136.558   2400090.440   6374001.459
10 0 59681  44142.000000  0     964298.511   1518375.539   6638733.286
10 0 59681  44262.000000  0     932974.759    610428.657   6786799.560
10 0 59681  44382.000000  0     869398.886   -307339.197   6815614.596
10 0 59681  44502.000000  0     774654.008  -1218359.953   6724675.000
10 0 59681  44622.000000  0     650654.200  -2106207.777   6515568.569
10 0 59681  44742.000000  0     500106.470  -2954895.348   6191948.818
10 0 59681  44862.000000  0     326453.921  -3749164.061   5759473.817
10 0 59681  44982.000000  0     133801.757  -4474759.241   5225710.580
10 0 59681  45102.000000  0     -73172.293  -5118689.239   4600009.931
10 0 59681  45222.000000  0    -289322.599  -5669466.768   3893350.177
10 0 59681  45342.000000  0    -509154.411  -6117324.491   3118147.343
10 0 59681  45462.000000  0    -726953.134  -6454398.334   2288037.535
10 0 59681  45582.000000  0    -936919.919  -6674874.228   1417634.697
10 0 59681  45702.000000  0   -1133312.093  -6775097.539    522269.441
10 0 59681  45822.000000  0   -1310585.210  -6753638.576   -382290.210
10 0 59681  45942.000000  0   -1463530.415  -6611311.370  -1280125.849
99
